     2.10           N: GPS NAV DATA                         RINEX VERSION / TYPE
RTKCONV 2.4.3 b33                       20191205 122514 UTC PGM / RUN BY / DATE 
log: D:\Project_EE\RTKÔ´Âë×ÊÁÏ\rtklib_2.4.3\bin\obsnav\rov  COMMENT             
format: RTCM 3                                              COMMENT             
                                                            END OF HEADER       
 3 19 12  5 12  0  0.0 -.476394779980E-04 -.648014975013E-11  .000000000000E+00
     .900000000000E+01 -.540000000000E+02  .466090843126E-08  .266322223502E+01
    -.287219882011E-05  .260061339941E-02  .618584454060E-05  .515365760422E+04
     .388800000000E+06 -.242143869400E-07  .962236951614E+00 -.223517417908E-07
     .964095214527E+00  .260000000000E+03  .791544114852E+00 -.812498129523E-08
    -.125719522437E-09  .000000000000E+00  .208200000000E+04  .100000000000E+01
     .200000000000E+01  .000000000000E+00  .232830643654E-08  .900000000000E+01
     .386147000000E+06  .400000000000E+01
 9 19 12  5 12  0  0.0 -.100524164736E-03 -.943600753089E-11  .000000000000E+00
     .890000000000E+02 -.180000000000E+02  .459411993496E-08  .242994337095E+00
    -.970438122749E-06  .168582075275E-02  .104010105133E-04  .515355377960E+04
     .388800000000E+06 -.298023223877E-07  .199407777092E+01 -.931322574615E-08
     .952271903296E+00  .173625000000E+03  .168353727891E+01 -.800319050787E-08
    -.115361948145E-09  .000000000000E+00  .208200000000E+04  .100000000000E+01
     .200000000000E+01  .000000000000E+00  .139698386192E-08  .890000000000E+02
     .386147000000E+06  .400000000000E+01
14 19 12  5 11 59 44.0 -.466173514724E-04  .216004991671E-11  .000000000000E+00
     .110000000000E+02  .284375000000E+01  .455340395327E-08 -.568354402836E+00
     .137835741043E-06  .107260652585E-01  .103507190943E-04  .515359879684E+04
     .388784000000E+06 -.838190317154E-07  .208854465551E+01  .130385160446E-06
     .960198781962E+00  .181687500000E+03 -.193113714398E+01 -.817962642856E-08
    -.835749098019E-10  .000000000000E+00  .208200000000E+04  .100000000000E+01
     .200000000000E+01  .000000000000E+00 -.977888703346E-08  .110000000000E+02
     .386147000000E+06  .400000000000E+01
16 19 12  5 11 59 44.0 -.999248586595E-04 -.386535248253E-11  .000000000000E+00
     .490000000000E+02  .393750000000E+01  .411231415153E-08  .692734209766E+00
     .331550836563E-06  .110396497184E-01  .605918467045E-05  .515367777252E+04
     .388784000000E+06 -.596046447754E-07 -.209213851712E+01  .176951289177E-06
     .980739601547E+00  .272562500000E+03  .580121157655E+00 -.806426448041E-08
    -.315370279295E-09  .000000000000E+00  .208200000000E+04  .100000000000E+01
     .200000000000E+01  .000000000000E+00 -.102445483208E-07  .490000000000E+02
     .386147000000E+06  .400000000000E+01
22 19 12  5 12  0  0.0 -.775861553848E-03 -.216004991671E-11  .000000000000E+00
     .570000000000E+02 -.499375000000E+02  .557094633799E-08 -.119187096406E+01
    -.255927443504E-05  .688391947187E-02  .571459531784E-05  .515363068199E+04
     .388800000000E+06 -.158324837685E-06  .882122930384E+00  .149011611938E-07
     .928898589040E+00  .252031250000E+03 -.125879694704E+01 -.873107797016E-08
    -.585738684082E-10  .000000000000E+00  .208200000000E+04  .100000000000E+01
     .200000000000E+01  .000000000000E+00 -.181607902050E-07  .570000000000E+02
     .386147000000E+06  .400000000000E+01
23 19 12  5 12  0  0.0 -.151445157826E-03  .227373675443E-11  .000000000000E+00
     .360000000000E+02 -.177500000000E+02  .473305429357E-08 -.169923470150E+01
    -.100210309029E-05  .132574076997E-01  .100359320641E-04  .515371434021E+04
     .388800000000E+06  .258907675743E-06  .198714504310E+01 -.838190317154E-07
     .943081541783E+00  .171718750000E+03 -.221752248126E+01 -.790640076190E-08
    -.417874549009E-10  .000000000000E+00  .208200000000E+04  .100000000000E+01
     .200000000000E+01  .000000000000E+00 -.204890966415E-07  .360000000000E+02
     .386147000000E+06  .400000000000E+01
25 19 12  5 12  0  0.0 -.174185261130E-04  .000000000000E+00  .000000000000E+00
     .550000000000E+02  .640625000000E+01  .434732394063E-08  .217010031961E+01
     .251457095146E-06  .867602741346E-02  .582821667194E-05  .515362535667E+04
     .388800000000E+06 -.106170773506E-06 -.217778528429E+01 -.150874257088E-06
     .967863355028E+00  .270500000000E+03  .885546828706E+00 -.804676375144E-08
    -.150006248362E-09  .000000000000E+00  .208200000000E+04  .100000000000E+01
     .200000000000E+01  .000000000000E+00  .558793544769E-08  .550000000000E+02
     .386147000000E+06  .400000000000E+01
26 19 12  5 12  0  0.0  .990550033748E-04  .818545231596E-11  .000000000000E+00
     .320000000000E+02  .790625000000E+01  .487413159857E-08  .161525984635E+01
     .484287738800E-06  .431266543455E-02  .553578138351E-05  .515371018791E+04
     .388800000000E+06  .223517417908E-07 -.220988363215E+01  .633299350739E-07
     .949062890085E+00  .266187500000E+03  .132722060704E+00 -.836213403073E-08
    -.256796410887E-09  .000000000000E+00  .208200000000E+04  .100000000000E+01
     .200000000000E+01  .000000000000E+00  .745058059692E-08  .320000000000E+02
     .386147000000E+06  .400000000000E+01
27 19 12  5 12  0  0.0 -.140985473990E-03 -.117097442853E-10  .000000000000E+00
     .109000000000E+03 -.212500000000E+01  .403873965829E-08 -.246747131586E+00
    -.726431608200E-07  .743280746974E-02  .874884426594E-05  .515366074562E+04
     .388800000000E+06  .726431608200E-07 -.113417095880E+01  .670552253723E-07
     .978413197534E+00  .220625000000E+03  .498491237304E+00 -.797854662421E-08
    -.139291516336E-10  .000000000000E+00  .208200000000E+04  .100000000000E+01
     .200000000000E+01  .000000000000E+00  .186264514923E-08  .109000000000E+03
     .386147000000E+06  .400000000000E+01
29 19 12  5 12  0  0.0  .264937989414E-04 -.989075488178E-11  .000000000000E+00
     .700000000000E+02  .425000000000E+01  .384230290448E-08 -.835000767876E-01
     .316649675369E-07  .104166590609E-02  .810995697975E-05  .515365992737E+04
     .388800000000E+06 -.745058059692E-08 -.106536875119E+01  .000000000000E+00
     .985717743535E+00  .234875000000E+03  .204441611933E+01 -.777103798064E-08
     .400016662300E-10  .000000000000E+00  .208200000000E+04  .100000000000E+01
     .200000000000E+01  .000000000000E+00 -.977888703346E-08  .700000000000E+02
     .386147000000E+06  .400000000000E+01
31 19 12  5 12  0  0.0 -.775046646595E-05 -.250111042988E-11  .000000000000E+00
     .260000000000E+02  .572812500000E+02  .463090718159E-08  .281934402150E+01
     .290200114250E-05  .959089281969E-02  .734254717827E-05  .515374325371E+04
     .388800000000E+06 -.912696123123E-07  .308373956711E+01 -.558793544769E-08
     .959033171261E+00  .239718750000E+03  .769288257887E-01 -.802104839458E-08
     .650027076237E-10  .000000000000E+00  .208200000000E+04  .100000000000E+01
     .200000000000E+01  .000000000000E+00 -.135041773319E-07  .260000000000E+02
     .386147000000E+06  .400000000000E+01
32 19 12  5 12  0  0.0  .146172009408E-03  .115960574476E-10  .000000000000E+00
     .118000000000E+03 -.615625000000E+01  .458876256895E-08  .526095364772E+00
    -.316649675369E-06  .331643456593E-02  .102911144495E-04  .515365929794E+04
     .388800000000E+06  .000000000000E+00  .200167634736E+01  .670552253723E-07
     .956462794937E+00  .178968750000E+03 -.254873937903E+01 -.805212111745E-08
    -.137505727665E-09  .000000000000E+00  .208200000000E+04  .100000000000E+01
     .200000000000E+01  .000000000000E+00  .465661287308E-09  .118000000000E+03
     .386147000000E+06  .400000000000E+01
 8 19 12  5 11 59 44.0 -.156876631081E-04 -.125055521494E-11  .000000000000E+00
     .110000000000E+02 -.612500000000E+01  .418410285611E-08 -.356002870091E-01
    -.331550836563E-06  .479258969426E-02  .900588929653E-05  .515359637642E+04
     .388784000000E+06  .670552253723E-07 -.114706075632E+01 -.428408384323E-07
     .970050957373E+00  .208875000000E+03 -.232291100314E+00 -.801426239763E-08
    -.207151485834E-10  .000000000000E+00  .208200000000E+04  .100000000000E+01
     .200000000000E+01  .000000000000E+00  .512227416039E-08  .110000000000E+02
     .387290000000E+06  .400000000000E+01
